BEIJING 1               
1 28890U 05043A   25092.58816067  .00000931  00000+0  19058-3 0  9996
2 28890  98.2308 220.0696 0013997 216.6790 143.3455 14.63069129 36212
HUANJING 1A (HJ-1A)     
1 33320U 08041A   25092.57513762  .00003129  00000+0  39575-3 0  9994
2 33320  97.6409  91.8926 0020693 140.7818 219.4900 14.82365312893091
HUANJING 1B (HJ-1B)     
1 33321U 08041B   25092.58577986  .00002226  00000+0  28366-3 0  9997
2 33321  97.6304  96.1639 0037075 186.2863 173.7890 14.82005615893123
YAOGAN-4                
1 33446U 08061A   25092.36833633  .00002782  00000+0  35846-3 0  9995
2 33446  97.9010  25.5011 0016245  68.3704 291.9238 14.81777629880358
DEIMOS-1                
1 35681U 09041A   25092.54037751  .00001466  00000+0  22779-3 0  9993
2 35681  97.6952 265.4178 0002011 132.6586 227.4793 14.74452962841934
UK-DMC 2                
1 35683U 09041C   25092.63618695  .00002300  00000+0  34969-3 0  9999
2 35683  97.8200 235.4136 0001046  99.7833 260.3494 14.74927252841607
DMC3-FM1                
1 40715U 15032A   25092.56837650  .00001446  00000+0  17589-3 0  9993
2 40715  97.7092 328.5441 0007032  68.8466 291.3500 14.84920859524506
DMC3-FM2                
1 40716U 15032B   25092.59002364  .00001458  00000+0  17713-3 0  9995
2 40716  97.7148 329.8332 0008892  72.4371 287.7815 14.84952289524503
DMC3-FM3                
1 40717U 15032C   25092.56630035  .00001457  00000+0  17760-3 0  9996
2 40717  97.7200 331.2258 0010307  69.0933 291.1384 14.84823745524501
